[{"OBJECT_NAME":"STARLINK-5154","OBJECT_ID":"2022-141V","EPOCH":"2026-03-09T23:32:39.379776","MEAN_MOTION":15.08815181,"ECCENTRICITY":0.00012515,"INCLINATION":53.2197,"RA_OF_ASC_NODE":2.6682,"ARG_OF_PERICENTER":98.9186,"MEAN_ANOMALY":261.1948,"EPHEMERIS_TYPE":0,"CLASSIFICATION_TYPE":"U","NORAD_CAT_ID":54176,"ELEMENT_SET_NO":999,"REV_AT_EPOCH":18590,"BSTAR":8.4783e-7,"MEAN_MOTION_DOT":-2.74e-6,"MEAN_MOTION_DDOT":0},{"OBJECT_NAME":"LEMUR-2-MARHISYAM","OBJECT_ID":"2024-149BW","EPOCH":"2026-03-09T17:46:07.876416","MEAN_MOTION":15.0901552,"ECCENTRICITY":0.00035778,"INCLINATION":97.6912,"RA_OF_ASC_NODE":151.2662,"ARG_OF_PERICENTER":107.3271,"MEAN_ANOMALY":252.8349,"EPHEMERIS_TYPE":0,"CLASSIFICATION_TYPE":"U","NORAD_CAT_ID":60536,"ELEMENT_SET_NO":999,"REV_AT_EPOCH":8547,"BSTAR":0.00082973442,"MEAN_MOTION_DOT":0.00013075,"MEAN_MOTION_DDOT":0}]
